QIANFAN-97              
1 66039U 25233G   25336.51140208  .00000384  00000+0  26453-3 0  9996
2 66039  88.9966  63.2665 0017537  75.3738 284.9383 13.97240114  6551
QIANFAN-98              
1 66040U 25233H   25336.51089535  .00000119  00000+0  61107-4 0  9995
2 66040  88.9967  63.2308 0016682  72.9468 287.3542 14.08682027  6573
QIANFAN-99              
1 66041U 25233J   25336.50988336  .00000523  00000+0  36464-3 0  9998
2 66041  88.9963  63.2663 0017515  71.5789 288.7291 13.97112115  6558
QIANFAN-100             
1 66042U 25233K   25336.65992531  .00000652  00000+0  37629-3 0  9994
2 66042  88.9966  63.2154 0017564  75.2827 285.0302 14.07786253  6594
QIANFAN-101             
1 66043U 25233L   25336.84693192  .00000392  00000+0  15615-3 0  9999
2 66043  88.9966  63.1690 0016791  71.3352 288.9663 14.26666240  6631
QIANFAN-102             
1 66044U 25233M   25336.76660045  .00000323  00000+0  21299-3 0  9991
2 66044  88.9965  63.2311 0016870  74.7666 285.5376 13.99303851  6599
QIANFAN-103             
1 66045U 25233N   25336.80816852  .00000298  00000+0  21245-3 0  9998
2 66045  88.9964  63.2372 0017714  71.4317 288.8781 13.94645472  6590
QIANFAN-104             
1 66046U 25233P   25336.69445519  .00000395  00000+0  26207-3 0  9995
2 66046  88.9966  63.2396 0016781  77.1272 283.1780 13.99377317  6586
